OBJECT_NAME,OBJECT_ID,EPOCH,MEAN_MOTION,ECCENTRICITY,INCLINATION,RA_OF_ASC_NODE,ARG_OF_PERICENTER,MEAN_ANOMALY,EPHEMERIS_TYPE,CLASSIFICATION_TYPE,NORAD_CAT_ID,ELEMENT_SET_NO,REV_AT_EPOCH,BSTAR,MEAN_MOTION_DOT,MEAN_MOTION_DDOT
KUZGTU 1 (RS47S),2023-091AV,2026-06-26T13:59:33.852480,15.30065781,.00119001,97.5067,242.1591,68.8362,291.4149,0,U,57217,999,16581,.44363377E-3,.12866E-3,0
SONATE-2,2024-043Q,2026-06-26T09:08:32.795232,15.59385702,.00073277,97.5531,328.3454,165.3783,194.7686,0,U,59112,999,12932,.52379825E-3,.41415E-3,0
MESAT1,2024-125G,2026-06-26T13:51:38.320704,15.64220272,.00104983,97.2279,35.2796,171.0383,189.1066,0,U,60209,999,11103,.5920034E-3,.5661E-3,0
OOV-CUBE (TUBSAT-30),2024-128F,2026-06-26T07:18:12.045312,15.02804000,.00434971,61.9924,193.7808,135.8027,224.6553,0,U,60240,999,10748,.13798353E-3,.1677E-4,0
COLIBRI-S (RS67S),2024-199M,2026-06-26T15:06:26.931168,15.48098499,.00066037,97.2986,51.5718,232.9279,127.1369,0,U,61746,999,13887,.43448496E-3,.22743E-3,0
HORS 3 (RS81S),2024-199U,2026-06-26T14:41:04.627968,15.55606781,.0004415,97.2972,53.6439,224.5685,135.5215,0,U,61753,999,13902,.52861737E-3,.36256E-3,0
HORS 4 (RS82S),2024-199V,2026-06-26T14:34:51.153600,15.60551902,.00044368,97.2916,54.9029,208.5458,151.5557,0,U,61754,999,13911,.54714878E-3,.45215E-3,0
SIT-2086,2024-199AF,2026-06-26T14:26:14.102304,15.53716966,.00057305,97.2930,54.0772,207.6807,152.4142,0,U,61764,999,13589,.56147715E-3,.35959E-3,0
HYPERVIEW 1G (RS66S),2024-199AP,2026-06-26T13:55:55.124832,15.78509455,.00059544,97.2857,57.7908,187.2081,172.9101,0,U,61772,999,13615,.9356148E-3,.164599E-2,0
ALTAIR (RS65S),2024-199AW,2026-06-26T14:47:55.955040,15.37192588,.00107573,97.3026,46.9061,271.6388,88.3625,0,U,61779,999,13856,.30032688E-3,.10879E-3,0
ASRTU-1 (AO-123),2024-199AY,2026-06-26T14:42:31.415904,15.35802996,.00118944,97.2996,46.1992,275.3488,84.6399,0,U,61781,999,13537,.21553958E-3,.7443E-4,0
SAMSAT-IONOSPHERE (RS75S),2024-199BB,2026-06-26T15:06:13.737888,15.58442670,.0006656,97.2939,53.7433,229.1711,130.8968,0,U,61784,999,13903,.59384988E-3,.45342E-3,0
RTU MIREA 1 (RS51S),2024-199BC,2026-06-26T15:10:27.563808,15.62106853,.00066013,97.2926,54.6278,220.9864,139.0898,0,U,61785,999,13594,.64417527E-3,.5664E-3,0
TEVEL2-4,2025-052D,2026-06-26T12:08:11.162400,15.34923768,.00048884,97.3900,73.9139,85.9594,274.2208,0,U,63213,999,7154,.55961394E-3,.18906E-3,0
TEVEL2-5,2025-052E,2026-06-25T16:18:41.230368,15.34714855,.00048604,97.3899,73.0315,88.8974,271.2826,0,U,63214,999,7141,.69414093E-3,.23328E-3,0
TEVEL2-6,2025-052F,2026-06-26T09:49:31.059264,15.34707233,.00046865,97.3903,73.7469,88.1218,272.0562,0,U,63215,999,7152,.57111581E-3,.19164E-3,0
TEVEL2-1,2025-052H,2026-06-26T05:54:12.402432,15.34157117,.00050007,97.3872,73.1969,96.2961,263.8851,0,U,63217,999,7148,.62319366E-3,.20561E-3,0
TEVEL2-3,2025-052J,2026-06-26T10:27:46.270080,15.34222924,.00048599,97.3880,73.4099,96.5233,263.6563,0,U,63218,999,7151,.6066227E-3,.20053E-3,0
TEVEL2-2,2025-052K,2026-06-26T10:36:20.881440,15.34174568,.00050133,97.3873,73.3957,96.2979,263.8835,0,U,63219,999,7151,.60803026E-3,.20069E-3,0
TEVEL2-9,2025-052AD,2026-06-26T10:21:08.711712,15.32168244,.00082852,97.3935,72.7405,106.0373,254.1782,0,U,63237,999,7144,.53921523E-3,.16704E-3,0
TEVEL2-7,2025-052AE,2026-06-26T09:48:34.448256,15.31864191,.00083756,97.3940,72.6299,106.3682,253.8481,0,U,63238,999,7143,.53966756E-3,.1656E-3,0
TEVEL2-8,2025-052AF,2026-06-26T05:18:23.535936,15.31844407,.00083849,97.3937,72.4192,107.6731,252.5427,0,U,63239,999,7140,.58597488E-3,.1798E-3,0
INNOSAT 16 (RS92S7),2025-155C,2026-06-26T13:53:31.504704,15.25550029,.00116336,97.4562,144.6769,144.5388,215.6626,0,U,64878,999,8210,.24287158E-3,.6099E-4,0
GEOSCAN 6 (RS92S6),2025-155D,2026-06-26T14:21:07.645824,15.30318046,.00093841,97.4553,146.1869,134.0614,226.1401,0,U,64879,999,8220,.35743811E-3,.10422E-3,0
GEOSCAN 1 (RS92S1),2025-155E,2026-06-26T14:19:19.107552,15.30932314,.00093246,97.4550,146.3418,133.9649,226.2363,0,U,64880,999,8221,.39892656E-3,.11866E-3,0
239ALFEROV (RS61S),2025-155F,2026-06-26T14:49:59.833632,15.33181473,.0009044,97.4550,146.9568,131.8805,228.3210,0,U,64881,999,8225,.45389836E-3,.14501E-3,0
GEOSCAN 2 (RS92S2),2025-155Q,2026-06-26T14:07:49.819584,15.31198500,.00089652,97.4549,146.4900,122.5938,237.6169,0,U,64890,999,8222,.35592003E-3,.10664E-3,0
GEOSCAN 5 (RS92S5),2025-155R,2026-06-26T14:31:23.323584,15.33497298,.00079026,97.4542,147.0849,135.4598,224.7281,0,U,64891,999,8226,.4509635E-3,.14546E-3,0
GEOSCAN 4 (RS92S4),2025-155S,2026-06-26T14:07:14.913984,15.33655420,.00079294,97.4546,147.1190,134.9510,225.2377,0,U,64892,999,8226,.46359233E-3,.15032E-3,0
GEOSCAN 3 (RS92S3),2025-155T,2026-06-26T13:50:38.453280,15.35695482,.00079464,97.4534,147.5647,134.2851,225.9045,0,U,64893,999,8229,.51451517E-3,.17816E-3,0
