KUZGTU 1 (RS47S)        
1 57217U 23091AV  26177.58303070  .00012866  00000+0  44363-3 0  9991
2 57217  97.5067 242.1591 0011900  68.8362 291.4149 15.30065781165813
SONATE-2                
1 59112U 24043Q   26177.38093513  .00041415  00000+0  52380-3 0  9991
2 59112  97.5531 328.3454 0007327 165.3783 194.7686 15.59385702129324
MESAT1                  
1 60209U 24125G   26177.57752686  .00056610  00000+0  59200-3 0  9996
2 60209  97.2279  35.2796 0010498 171.0383 189.1066 15.64220272111030
OOV-CUBE (TUBSAT-30)    
1 60240U 24128F   26177.30430608  .00001677  00000+0  13798-3 0  9997
2 60240  61.9924 193.7808 0043497 135.8027 224.6553 15.02804000107481
COLIBRI-S (RS67S)       
1 61746U 24199M   26177.62947837  .00022743  00000+0  43448-3 0  9991
2 61746  97.2986  51.5718 0006603 232.9279 127.1369 15.48098499138876
HORS 3 (RS81S)          
1 61753U 24199U   26177.61185912  .00036256  00000+0  52862-3 0  9990
2 61753  97.2972  53.6439 0004415 224.5685 135.5215 15.55606781139027
HORS 4 (RS82S)          
1 61754U 24199V   26177.60753650  .00045215  00000+0  54715-3 0  9994
2 61754  97.2916  54.9029 0004436 208.5458 151.5557 15.60551902139115
SIT-2086                
1 61764U 24199AF  26177.60155211  .00035959  00000+0  56148-3 0  9990
2 61764  97.2930  54.0772 0005730 207.6807 152.4142 15.53716966135890
HYPERVIEW 1G (RS66S)    
1 61772U 24199AP  26177.58049913  .00164599  00000+0  93561-3 0  9990
2 61772  97.2857  57.7908 0005954 187.2081 172.9101 15.78509455136155
ALTAIR (RS65S)          
1 61779U 24199AW  26177.61661985  .00010879  00000+0  30033-3 0  9996
2 61779  97.3026  46.9061 0010757 271.6388  88.3625 15.37192588138564
ASRTU-1 (AO-123)        
1 61781U 24199AY  26177.61286361  .00007443  00000+0  21554-3 0  9991
2 61781  97.2996  46.1992 0011894 275.3488  84.6399 15.35802996135374
SAMSAT-IONOSPHERE (RS7*)
1 61784U 24199BB  26177.62932567  .00045342  00000+0  59385-3 0  9994
2 61784  97.2939  53.7433 0006656 229.1711 130.8968 15.58442670139031
RTU MIREA 1 (RS51S)     
1 61785U 24199BC  26177.63226347  .00056640  00000+0  64418-3 0  9994
2 61785  97.2926  54.6278 0006601 220.9864 139.0898 15.62106853135947
TEVEL2-4                
1 63213U 25052D   26177.50568475  .00018906  00000+0  55961-3 0  9994
2 63213  97.3900  73.9139 0004888  85.9594 274.2208 15.34923768 71545
TEVEL2-5                
1 63214U 25052E   26176.67964387  .00023328  00000+0  69414-3 0  9996
2 63214  97.3899  73.0315 0004860  88.8974 271.2826 15.34714855 71418
TEVEL2-6                
1 63215U 25052F   26177.40938726  .00019164  00000+0  57112-3 0  9992
2 63215  97.3903  73.7469 0004686  88.1218 272.0562 15.34707233 71522
TEVEL2-1                
1 63217U 25052H   26177.24597688  .00020561  00000+0  62319-3 0  9992
2 63217  97.3872  73.1969 0005000  96.2961 263.8851 15.34157117 71488
TEVEL2-3                
1 63218U 25052J   26177.43595220  .00020053  00000+0  60662-3 0  9999
2 63218  97.3880  73.4099 0004859  96.5233 263.6563 15.34222924 71512
TEVEL2-2                
1 63219U 25052K   26177.44190835  .00020069  00000+0  60803-3 0  9998
2 63219  97.3873  73.3957 0005013  96.2979 263.8835 15.34174568 71518
TEVEL2-9                
1 63237U 25052AD  26177.43135083  .00016704  00000+0  53922-3 0  9996
2 63237  97.3935  72.7405 0008285 106.0373 254.1782 15.32168244 71448
TEVEL2-7                
1 63238U 25052AE  26177.40873204  .00016560  00000+0  53967-3 0  9997
2 63238  97.3940  72.6299 0008375 106.3682 253.8481 15.31864191 71435
TEVEL2-8                
1 63239U 25052AF  26177.22110574  .00017980  00000+0  58597-3 0  9993
2 63239  97.3937  72.4192 0008384 107.6731 252.5427 15.31844407 71402
INNOSAT 16 (RS92S7)     
1 64878U 25155C   26177.57883686  .00006099  00000+0  24287-3 0  9994
2 64878  97.4562 144.6769 0011633 144.5388 215.6626 15.25550029 82105
GEOSCAN 6 (RS92S6)      
1 64879U 25155D   26177.59800516  .00010422  00000+0  35744-3 0  9993
2 64879  97.4553 146.1869 0009384 134.0614 226.1401 15.30318046 82206
GEOSCAN 1 (RS92S1)      
1 64880U 25155E   26177.59674893  .00011866  00000+0  39893-3 0  9994
2 64880  97.4550 146.3418 0009324 133.9649 226.2363 15.30932314 82216
239ALFEROV (RS61S)      
1 64881U 25155F   26177.61805363  .00014501  00000+0  45390-3 0  9994
2 64881  97.4550 146.9568 0009044 131.8805 228.3210 15.33181473 82252
GEOSCAN 2 (RS92S2)      
1 64890U 25155Q   26177.58877106  .00010664  00000+0  35592-3 0  9993
2 64890  97.4549 146.4900 0008965 122.5938 237.6169 15.31198500 82220
GEOSCAN 5 (RS92S5)      
1 64891U 25155R   26177.60513106  .00014546  00000+0  45096-3 0  9997
2 64891  97.4542 147.0849 0007902 135.4598 224.7281 15.33497298 82262
GEOSCAN 4 (RS92S4)      
1 64892U 25155S   26177.58836706  .00015032  00000+0  46359-3 0  9993
2 64892  97.4546 147.1190 0007929 134.9510 225.2377 15.33655420 82269
GEOSCAN 3 (RS92S3)      
1 64893U 25155T   26177.57683395  .00017816  00000+0  51452-3 0  9999
2 64893  97.4534 147.5647 0007946 134.2851 225.9045 15.35695482 82294
